[{"OBJECT_NAME":"YAOGAN-31 04C","OBJECT_ID":"2021-020D","EPOCH":"2026-03-09T22:27:49.782240","MEAN_MOTION":13.45440258,"ECCENTRICITY":0.01660597,"INCLINATION":63.4065,"RA_OF_ASC_NODE":153.1123,"ARG_OF_PERICENTER":0.0567,"MEAN_ANOMALY":0.045,"EPHEMERIS_TYPE":0,"CLASSIFICATION_TYPE":"U","NORAD_CAT_ID":47857,"ELEMENT_SET_NO":999,"REV_AT_EPOCH":24510,"BSTAR":3.7998347e-5,"MEAN_MOTION_DOT":-6.6e-7,"MEAN_MOTION_DDOT":0},{"OBJECT_NAME":"THORAD AGENA D DEB","OBJECT_ID":"1970-025X","EPOCH":"2026-03-09T09:57:17.080128","MEAN_MOTION":13.33098389,"ECCENTRICITY":0.01124783,"INCLINATION":99.8894,"RA_OF_ASC_NODE":139.1894,"ARG_OF_PERICENTER":314.0154,"MEAN_ANOMALY":105.243,"EPHEMERIS_TYPE":0,"CLASSIFICATION_TYPE":"U","NORAD_CAT_ID":4639,"ELEMENT_SET_NO":999,"REV_AT_EPOCH":71598,"BSTAR":0.00029614951,"MEAN_MOTION_DOT":1.07e-6,"MEAN_MOTION_DDOT":0}]
